[{"OBJECT_NAME":"OBJECT E","OBJECT_ID":"2024-174E","EPOCH":"2026-03-09T23:40:24.424320","MEAN_MOTION":15.26241811,"ECCENTRICITY":0.00122518,"INCLINATION":97.4515,"RA_OF_ASC_NODE":80.1669,"ARG_OF_PERICENTER":217.7524,"MEAN_ANOMALY":142.2856,"EPHEMERIS_TYPE":0,"CLASSIFICATION_TYPE":"U","NORAD_CAT_ID":61242,"ELEMENT_SET_NO":999,"REV_AT_EPOCH":8070,"BSTAR":0.00031155901,"MEAN_MOTION_DOT":8.013e-5,"MEAN_MOTION_DDOT":0},{"OBJECT_NAME":"STARLINK-32484","OBJECT_ID":"2024-224X","EPOCH":"2026-03-09T22:20:38.389632","MEAN_MOTION":15.27613951,"ECCENTRICITY":6.43e-5,"INCLINATION":42.9965,"RA_OF_ASC_NODE":157.0185,"ARG_OF_PERICENTER":325.6445,"MEAN_ANOMALY":34.4365,"EPHEMERIS_TYPE":0,"CLASSIFICATION_TYPE":"U","NORAD_CAT_ID":62160,"ELEMENT_SET_NO":999,"REV_AT_EPOCH":7251,"BSTAR":0.0010017943,"MEAN_MOTION_DOT":0.00027436,"MEAN_MOTION_DDOT":0}]
